OBJECT_NAME,OBJECT_ID,EPOCH,MEAN_MOTION,ECCENTRICITY,INCLINATION,RA_OF_ASC_NODE,ARG_OF_PERICENTER,MEAN_ANOMALY,EPHEMERIS_TYPE,CLASSIFICATION_TYPE,NORAD_CAT_ID,ELEMENT_SET_NO,REV_AT_EPOCH,BSTAR,MEAN_MOTION_DOT,MEAN_MOTION_DDOT
BEIDOU-3 M26 (C48),2023-207B,2026-06-17T15:12:35.116992,1.86229688,.00030741,55.7554,62.2745,320.8163,39.2030,0,U,58655,999,1683,0,-.55E-6,0
GSAT0225 (GALILEO 29),2024-079A,2026-06-17T17:19:42.233376,1.70473787,.00018423,55.1202,101.0649,301.4037,252.5080,0,U,59598,999,1332,0,-.13E-6,0
GSAT0227 (GALILEO 30),2024-079C,2026-06-18T04:13:29.500032,1.70473946,.0002262,55.1155,101.0510,52.1079,307.8860,0,U,59600,999,1338,0,-.12E-6,0
GSAT0232 (GALILEO 32),2024-167A,2026-06-17T04:46:04.943712,1.70474251,.00062334,55.1848,221.3134,227.6333,108.1105,0,U,61182,999,1087,0,.4E-6,0
GSAT0226 (GALILEO 31),2024-167B,2026-06-18T05:38:48.534144,1.70474256,.0002936,55.1833,221.2920,228.3860,114.8908,0,U,61183,999,1086,0,.32E-6,0
BEIDOU-3 M25 (C47),2024-168B,2026-06-18T11:02:12.219360,1.86229897,.0002994,54.4721,302.1976,300.4500,10.7981,0,U,61186,999,1180,0,-.78E-6,0
BEIDOU-3 M27 (C49),2024-168C,2026-06-18T09:24:24.162912,1.86229958,.0001544,54.4674,302.1829,51.7463,348.9950,0,U,61187,999,928,0,-.78E-6,0
GPS BIII-7  (PRN 01),2024-242A,2026-06-18T19:58:03.346752,2.00571448,.00175866,54.8480,334.1138,4.3197,352.3728,0,U,62339,999,1128,0,-.92E-6,0
QZS-6 (QZSS/PRN 200),2025-023A,2026-06-18T21:36:21.782304,1.00270305,.00018157,0.0578,72.3004,19.9785,229.4587,0,U,62876,999,496,0,-.239E-5,0
COSMOS 2584 (704K),2025-042A,2026-06-16T04:50:31.942176,2.13103849,.00057452,65.0842,72.8354,226.1824,133.8028,0,U,63130,999,1002,0,-.22E-6,0
GPS BIII-8  (PRN 21),2025-116A,2026-06-18T07:51:38.692224,2.00575695,.000857,55.2356,31.0839,338.5670,196.7311,0,U,64202,999,789,0,-.85E-6,0
COSMOS 2596 (708K),2025-206B,2026-06-18T10:24:28.997280,2.13100598,.0010998,64.6338,314.9413,311.7055,76.8578,0,U,65590,999,594,0,-.57E-6,0
GSAT0233 (GALILEO 33),2025-302A,2026-06-18T06:31:06.225312,1.70473916,.00007746,54.3362,102.0997,222.6164,239.4489,0,U,67160,999,314,0,-.12E-6,0
GSAT0234 (GALILEO 34),2025-302C,2026-06-18T02:34:08.632704,1.70473903,.00029627,54.3376,102.1035,311.0872,230.0912,0,U,67162,999,319,0,-.12E-6,0
GPS BIII-9  (PRN 20),2026-017A,2026-06-17T04:44:06.594720,2.00571090,.00220809,55.0883,88.7549,258.4523,101.2987,0,U,67588,999,43161,0,-.21E-6,0
GPS BIII-10 (PRN 13),2026-087A,2026-06-07T10:32:17.680992,2.00569573,.00209312,54.9638,208.1735,107.2972,251.8874,0,U,68791,999,63,0,.57E-6,0
