BEIDOU-3 M26            
1 58655U 23207B   26168.63373978 -.00000055  00000+0  00000+0 0  9991
2 58655  55.7554  62.2745 0003074 320.8163  39.2030  1.86229688 16830
GSAT0225 (GALILEO 29)   
1 59598U 24079A   26168.72201659 -.00000013  00000+0  00000+0 0  9996
2 59598  55.1202 101.0649 0001842 301.4037 252.5080  1.70473787 13322
GSAT0227 (GALILEO 30)   
1 59600U 24079C   26169.17603588 -.00000012  00000+0  00000+0 0  9996
2 59600  55.1155 101.0510 0002262  52.1079 307.8860  1.70473946 13386
GSAT0232 (GALILEO 32)   
1 61182U 24167A   26168.19866833  .00000040  00000+0  00000+0 0  9997
2 61182  55.1848 221.3134 0006233 227.6333 108.1105  1.70474251 10870
GSAT0226 (GALILEO 31)   
1 61183U 24167B   26169.23528396  .00000032  00000+0  00000+0 0  9994
2 61183  55.1833 221.2920 0002936 228.3860 114.8908  1.70474256 10865
BEIDOU-3 M25            
1 61186U 24168B   26169.45986365 -.00000078  00000+0  00000+0 0  9997
2 61186  54.4721 302.1976 0002994 300.4500  10.7981  1.86229897 11809
BEIDOU-3 M27            
1 61187U 24168C   26169.39194633 -.00000078  00000+0  00000+0 0  9990
2 61187  54.4674 302.1829 0001544  51.7463 348.9950  1.86229958  9287
NAVSTAR 83 (USA 440)    
1 62339U 24242A   26169.83198318 -.00000092  00000+0  00000+0 0  9992
2 62339  54.8480 334.1138 0017586   4.3197 352.3728  2.00571448 11281
QZS-6 (MICHIBIKI-6)     
1 62876U 25023A   26169.90025211 -.00000239  00000+0  00000+0 0  9998
2 62876   0.0578  72.3004 0001815  19.9785 229.4587  1.00270305  4965
COSMOS 2584 [GLONASS-K2]
1 63130U 25042A   26167.20175859 -.00000022  00000+0  00000+0 0  9998
2 63130  65.0842  72.8354 0005745 226.1824 133.8028  2.13103849 10024
NAVSTAR 84 (USA 545)    
1 64202U 25116A   26169.32753116 -.00000085  00000+0  00000+0 0  9993
2 64202  55.2356  31.0839 0008570 338.5670 196.7311  2.00575695  7899
COSMOS 2596 [GLONASS-K1]
1 65590U 25206B   26169.43366895 -.00000057  00000+0  00000+0 0  9999
2 65590  64.6338 314.9413 0010998 311.7055  76.8578  2.13100598  5949
GSAT0233 (GALILEO 33)   
1 67160U 25302A   26169.27159983 -.00000012  00000+0  00000+0 0  9992
2 67160  54.3362 102.0997 0000774 222.6164 239.4489  1.70473916  3149
GSAT0234 (GALILEO 34)   
1 67162U 25302C   26169.10704436 -.00000012  00000+0  00000+0 0  9995
2 67162  54.3376 102.1035 0002962 311.0872 230.0912  1.70473903  3199
NAVSTAR 85 (USA 581)    
1 67588U 26017A   26168.19729855 -.00000021  00000+0  00000+0 0  9991
2 67588  55.0883  88.7549 0022080 258.4523 101.2987  2.00571090431614
NAVSTAR 86 (USA 585)    
1 68791U 26087A   26158.43909353  .00000057  00000+0  00000+0 0  9992
2 68791  54.9638 208.1735 0020931 107.2972 251.8874  2.00569573   638
